BEIDOU 3 (C01)          
1 36287U 10001A   22078.54846014 -.00000279  00000+0  00000+0 0  9996
2 36287   1.9251  48.4775 0002820   7.5041  98.9654  1.00273262 44619
BEIDOU 5 (C06)          
1 36828U 10036A   22078.26104464 -.00000135  00000+0  00000+0 0  9991
2 36828  54.1920 177.0561 0027621 183.3920  18.9989  1.00272318 42678
BEIDOU 6 (C04)          
1 37210U 10057A   22077.76293120 -.00000112  00000+0  00000+0 0  9997
2 37210   1.0073  55.6346 0003425 147.2793  48.0474  1.00271472 41727
BEIDOU 7 (C07)          
1 37256U 10068A   22078.25747984 -.00000171  00000+0  00000+0 0  9991
2 37256  50.3715 290.7236 0017938 182.8174 264.5823  1.00278350 41241
BEIDOU 8 (C08)          
1 37384U 11013A   22078.26525760 -.00000159  00000+0  00000+0 0  9997
2 37384  60.1659  55.1480 0019356 196.1196 129.7799  1.00279709 40119
BEIDOU 9 (C09)          
1 37763U 11038A   22077.22640194 -.00000082  00000+0  00000+0 0  9994
2 37763  54.4760 179.5476 0090594 226.0222 303.8407  1.00254252 39082
BEIDOU 10 (C10)         
1 37948U 11073A   22078.25952844 -.00000123  00000+0  00000+0 0  9996
2 37948  50.4864 290.3575 0076890 217.8749 217.9150  1.00273273 37852
BEIDOU 11 (C05)         
1 38091U 12008A   22078.54285547  .00000057  00000+0  00000+0 0  9991
2 38091   1.3697  64.8283 0014493 316.1727  50.1470  1.00277868 36935
BEIDOU 12 (C11)         
1 38250U 12018A   22078.19107043 -.00000075  00000+0  00000+0 0  9995
2 38250  56.7172 356.5413 0022624 257.9359 275.7004  1.86234369 67405
BEIDOU 13 (C12)         
1 38251U 12018B   22077.51564241 -.00000076  00000+0  00000+0 0  9999
2 38251  56.6359 355.8937 0013514 264.6745 220.3745  1.86234229 67398
BEIDOU 15 (C14)         
1 38775U 12050B   22078.27756104  .00000055  00000+0  00000+0 0  9997
2 38775  55.3467 114.7200 0014426 318.4270 154.0859  1.86231300 64780
BEIDOU 16 (C02)         
1 38953U 12059A   22078.53729623 -.00000175  00000+0  00000+0 0  9993
2 38953   1.7650  84.5522 0013255 288.8481  81.1542  1.00272774 34503
BEIDOU 17 (C31)         
1 40549U 15019A   22078.42700514 -.00000142  00000+0  00000+0 0  9996
2 40549  52.0384 313.8004 0035331 188.9855 282.5379  1.00261595 25534
BEIDOU 18 (C57)         
1 40748U 15037A   22078.14612994 -.00000076  00000+0  00000+0 0  9996
2 40748  55.8906 354.7943 0005511   2.2044  95.1199  1.86233283 45231
BEIDOU 19 (C58)         
1 40749U 15037B   22077.51351278 -.00000076  00000+0  00000+0 0  9992
2 40749  55.8942 354.8053 0006800 330.7428 197.3384  1.86232214 45214
BEIDOU 20 (C18)         
1 40938U 15053A   22078.51438154 -.00000105  00000+0  00000+0 0  9993
2 40938  51.6400 276.9015 0043720 192.6917 348.3941  1.00266439 23797
BEIDOU IGSO-6 (C13)     
1 41434U 16021A   22078.39570056 -.00000121  00000+0  00000+0 0  9993
2 41434  57.9688  53.7629 0043384 219.9742 139.0473  1.00259880 21923
BEIDOU-2 G7 (C03)       
1 41586U 16037A   22078.50118715 -.00000353  00000+0  00000+0 0  9998
2 41586   1.7763  68.3300 0008788 356.8665  42.7249  1.00276749 21232
BEIDOU-3 M1 (C19)       
1 43001U 17069A   22078.40961449  .00000055  00000+0  00000+0 0  9995
2 43001  55.5001 114.7042 0011498 286.9929  70.2473  1.86231637 29712
BEIDOU-3 M2 (C20)       
1 43002U 17069B   22078.34277495  .00000055  00000+0  00000+0 0  9990
2 43002  55.5000 114.7418 0009461 305.2880  50.2800  1.86231393 29707
BEIDOU-3 M3 (C27)       
1 43107U 18003A   22078.40224706 -.00000077  00000+0  00000+0 0  9994
2 43107  55.3394 355.7438 0005247  40.0016 161.4671  1.86232426 28471
BEIDOU-3 M4 (C28)       
1 43108U 18003B   22077.28879884 -.00000078  00000+0  00000+0 0  9994
2 43108  55.3334 355.7714 0003077 275.6678 303.6855  1.86230852 28455
BEIDOU-3 M5 (C21)       
1 43207U 18018A   22077.94457896  .00000057  00000+0  00000+0 0  9994
2 43207  55.4589 114.8374 0006822 321.6455  38.3946  1.86231624 27854
BEIDOU-3 M6 (C22)       
1 43208U 18018B   22078.01122278  .00000057  00000+0  00000+0 0  9997
2 43208  55.4578 114.8386 0009646 296.8648  63.1295  1.86231881 27858
BEIDOU-3 M7 (C29)       
1 43245U 18029A   22077.49639258 -.00000076  00000+0  00000+0 0  9994
2 43245  55.2580 353.5489 0001469 348.7875 235.7092  1.86232482 26994
BEIDOU-3 M8 (C30)       
1 43246U 18029B   22077.42619582 -.00000076  00000+0  10000-3 0  9991
2 43246  55.2546 353.5808 0005389 354.2851 229.6078  1.86232687 26985
BEIDOU IGSO-7 (C16)     
1 43539U 18057A   22078.20243475 -.00000136  00000+0  00000+0 0  9990
2 43539  55.0747 176.5048 0045973 223.9977 319.9505  1.00285380 13601
BEIDOU-3 M9 (C23)       
1 43581U 18062A   22078.39723968  .00000035  00000+0  00000+0 0  9990
2 43581  54.3048 235.1667 0001821 317.0765  48.6233  1.86231842 24757
BEIDOU-3 M10 (C24)      
1 43582U 18062B   22077.63597591  .00000031  00000+0  00000+0 0  9994
2 43582  54.3051 235.1820 0006293  24.0704 282.9427  1.86232106 24739
BEIDOU-3 M11 (C25)      
1 43602U 18067A   22077.56786249  .00000030  00000+0  00000+0 0  9993
2 43602  54.3862 233.7913 0007614  15.3321 287.5713  1.86231644 24224
BEIDOU-3 M12 (C26)      
1 43603U 18067B   22078.37833308  .00000035  00000+0  00000+0 0  9998
2 43603  54.3830 233.7308 0004631  10.7641  25.9168  1.86231586 24265
BEIDOU-3 M13 (C32)      
1 43622U 18072A   22078.27822728  .00000055  00000+0  00000+0 0  9990
2 43622  55.4256 114.3835 0008095 282.0159  77.0958  1.86231510 23761
BEIDOU-3 M14 (C33)      
1 43623U 18072B   22078.42688237  .00000055  00000+0  00000+0 0  9993
2 43623  55.4267 114.3711 0005817 301.2010 247.8105  1.86231508 23775
BEIDOU-3 M15 (C34)      
1 43647U 18078A   22077.00760671 -.00000078  00000+0 -72319+0 0  9990
2 43647  55.1525 353.7333 0007747 359.7683 213.1299  1.86232978 23257
BEIDOU-3 M16 (C35)      
1 43648U 18078B   22077.15848750 -.00000077  00000+0  00000+0 0  9998
2 43648  55.1493 353.7338 0005627   7.0046 215.0094  1.86232188 23277
BEIDOU-3 G1 (C59)       
1 43683U 18085A   22078.54837293 -.00000278  00000+0  00000+0 0  9992
2 43683   0.8392 182.2759 0002243 325.5069   6.7442  1.00273734 12501
BEIDOU-3 M17 (C36)      
1 43706U 18093A   22077.51616742  .00000031  00000+0  00000+0 0  9993
2 43706  54.3881 235.0752 0007449 279.8652  80.0011  1.86231790 22649
BEIDOU-3 M18 (C37)      
1 43707U 18093B   22078.46744225  .00000036  00000+0  00000+0 0  9992
2 43707  54.3879 235.0332 0006573 315.1030  53.6875  1.86232278 22659
BEIDOU-3 IGSO-1 (C38)   
1 44204U 19023A   22078.55519598 -.00000192  00000+0  00000+0 0  9996
2 44204  56.4307  53.9334 0020396 205.8143 236.0664  1.00285516 10816
BEIDOU-2 G8             
1 44231U 19027A   22078.55909747 -.00000247  00000+0  00000+0 0  9990
2 44231   0.6496  71.1389 0004768 143.9807 307.7637  1.00271071 10527
BEIDOU-3 IGSO-2 (C39)   
1 44337U 19035A   22078.20395211 -.00000138  00000+0  00000+0 0  9992
2 44337  55.1130 172.5298 0022695 191.4431   5.1136  1.00280732 10144
BEIDOU-3 M23 (C45)      
1 44542U 19061A   22077.45166085  .00000031  00000+0  00000+0 0  9991
2 44542  54.6139 235.2014 0007872 351.6142   8.3233  1.86231196 16892
BEIDOU-3 M24 (C46)      
1 44543U 19061B   22077.50014142  .00000031  00000+0  00000+0 0  9994
2 44543  54.6115 235.1699 0005113 352.0801 311.5438  1.86231663 16882
BEIDOU-3 IGSO-3         
1 44709U 19073A   22078.51021318 -.00000146  00000+0  00000+0 0  9994
2 44709  57.4089 297.3150 0020468 172.1063  10.5022  1.00283614  8908
BEIDOU-3 M21            
1 44793U 19078A   22077.51579027 -.00000077  00000+0  10000-3 0  9994
2 44793  55.0008 353.7479 0007527   5.0411 142.6051  1.86232131 15751
BEIDOU-3 M22            
1 44794U 19078B   22077.61667509 -.00000077  00000+0  00000+0 0  9994
2 44794  54.9755 353.7371 0005421   0.1768 126.6024  1.86232679 15751
BEIDOU-3 M19            
1 44864U 19090A   22078.22448174  .00000055  00000+0  00000+0 0  9994
2 44864  55.3596 114.6015 0018268 268.7420 100.0531  1.86231807 15353
BEIDOU-3 M20            
1 44865U 19090B   22078.15520157  .00000056  00000+0  00000+0 0  9990
2 44865  55.3625 114.6349 0016504 281.5996 130.6311  1.86231792 15324
BEIDOU-3 G2             
1 45344U 20017A   22078.53642406 -.00000142  00000+0  00000+0 0  9995
2 45344   2.1333 347.6536 0002941  71.7270  30.8093  1.00271318  7720
BEIDOU-3 G3             
1 45807U 20040A   22077.53773223 -.00000357  00000+0  00000+0 0  9994
2 45807   1.6457 300.9955 0008583 339.5982 199.5281  1.00279522  6529
